[{"OBJECT_NAME":"HTV-X1","OBJECT_ID":"2025-241A","EPOCH":"2026-03-03T18:28:10.188768","MEAN_MOTION":15.48425902,"ECCENTRICITY":0.0008204,"INCLINATION":51.6317,"RA_OF_ASC_NODE":101.625,"ARG_OF_PERICENTER":153.6152,"MEAN_ANOMALY":206.5256,"EPHEMERIS_TYPE":0,"CLASSIFICATION_TYPE":"U","NORAD_CAT_ID":66174,"ELEMENT_SET_NO":999,"REV_AT_EPOCH":55562,"BSTAR":0.00019358,"MEAN_MOTION_DOT":0.00010027,"MEAN_MOTION_DDOT":0},{"OBJECT_NAME":"SZ-21 MODULE","OBJECT_ID":"2025-246C","EPOCH":"2026-03-03T18:27:35.995968","MEAN_MOTION":15.6801182,"ECCENTRICITY":0.0001447,"INCLINATION":41.473,"RA_OF_ASC_NODE":239.7929,"ARG_OF_PERICENTER":287.9355,"MEAN_ANOMALY":72.1329,"EPHEMERIS_TYPE":0,"CLASSIFICATION_TYPE":"U","NORAD_CAT_ID":66515,"ELEMENT_SET_NO":999,"REV_AT_EPOCH":1714,"BSTAR":0.00039281,"MEAN_MOTION_DOT":0.00044751,"MEAN_MOTION_DDOT":0},{"OBJECT_NAME":"SHENZHOU-22","OBJECT_ID":"2025-272A","EPOCH":"2026-03-03T19:51:54.734112","MEAN_MOTION":15.60361861,"ECCENTRICITY":0.0006655,"INCLINATION":41.4653,"RA_OF_ASC_NODE":243.8214,"ARG_OF_PERICENTER":237.2014,"MEAN_ANOMALY":122.8183,"EPHEMERIS_TYPE":0,"CLASSIFICATION_TYPE":"U","NORAD_CAT_ID":66645,"ELEMENT_SET_NO":999,"REV_AT_EPOCH":26819,"BSTAR":0.00041863,"MEAN_MOTION_DOT":0.00035156,"MEAN_MOTION_DDOT":0},{"OBJECT_NAME":"SOYUZ-MS 28","OBJECT_ID":"2025-275A","EPOCH":"2026-03-03T18:28:10.188768","MEAN_MOTION":15.48425902,"ECCENTRICITY":0.0008204,"INCLINATION":51.6317,"RA_OF_ASC_NODE":101.625,"ARG_OF_PERICENTER":153.6152,"MEAN_ANOMALY":206.5256,"EPHEMERIS_TYPE":0,"CLASSIFICATION_TYPE":"U","NORAD_CAT_ID":66664,"ELEMENT_SET_NO":999,"REV_AT_EPOCH":55574,"BSTAR":0.00019358,"MEAN_MOTION_DOT":0.00010027,"MEAN_MOTION_DDOT":0},{"OBJECT_NAME":"DUPLEX","OBJECT_ID":"1998-067XS","EPOCH":"2026-03-03T08:33:00.238464","MEAN_MOTION":15.55742662,"ECCENTRICITY":0.00020382,"INCLINATION":51.6288,"RA_OF_ASC_NODE":101.119,"ARG_OF_PERICENTER":89.0398,"MEAN_ANOMALY":271.0826,"EPHEMERIS_TYPE":0,"CLASSIFICATION_TYPE":"U","NORAD_CAT_ID":66906,"ELEMENT_SET_NO":999,"REV_AT_EPOCH":1414,"BSTAR":0.00047371083,"MEAN_MOTION_DOT":0.00032923,"MEAN_MOTION_DDOT":0},{"OBJECT_NAME":"ISS OBJECT XT","OBJECT_ID":"1998-067XT","EPOCH":"2026-03-03T08:06:02.892672","MEAN_MOTION":15.67089753,"ECCENTRICITY":0.00045682,"INCLINATION":51.6251,"RA_OF_ASC_NODE":97.984,"ARG_OF_PERICENTER":38.4231,"MEAN_ANOMALY":321.709,"EPHEMERIS_TYPE":0,"CLASSIFICATION_TYPE":"U","NORAD_CAT_ID":66907,"ELEMENT_SET_NO":999,"REV_AT_EPOCH":1418,"BSTAR":0.0012825425,"MEAN_MOTION_DOT":0.00141674,"MEAN_MOTION_DDOT":0},{"OBJECT_NAME":"ISS OBJECT XU","OBJECT_ID":"1998-067XU","EPOCH":"2026-03-03T11:07:42.324384","MEAN_MOTION":15.67218012,"ECCENTRICITY":0.00046718,"INCLINATION":51.6245,"RA_OF_ASC_NODE":97.3227,"ARG_OF_PERICENTER":43.1438,"MEAN_ANOMALY":316.9924,"EPHEMERIS_TYPE":0,"CLASSIFICATION_TYPE":"U","NORAD_CAT_ID":66908,"ELEMENT_SET_NO":999,"REV_AT_EPOCH":1420,"BSTAR":0.0013429841,"MEAN_MOTION_DOT":0.00149295,"MEAN_MOTION_DDOT":0},{"OBJECT_NAME":"SILVERSAT","OBJECT_ID":"1998-067XV","EPOCH":"2026-03-03T08:21:06.399072","MEAN_MOTION":15.69574615,"ECCENTRICITY":0.00054107,"INCLINATION":51.6247,"RA_OF_ASC_NODE":97.2997,"ARG_OF_PERICENTER":39.2869,"MEAN_ANOMALY":320.852,"EPHEMERIS_TYPE":0,"CLASSIFICATION_TYPE":"U","NORAD_CAT_ID":66909,"ELEMENT_SET_NO":999,"REV_AT_EPOCH":1419,"BSTAR":0.0014567755,"MEAN_MOTION_DOT":0.00179133,"MEAN_MOTION_DDOT":0},{"OBJECT_NAME":"ISS OBJECT XW","OBJECT_ID":"1998-067XW","EPOCH":"2026-03-03T10:59:07.056384","MEAN_MOTION":15.66680726,"ECCENTRICITY":0.00048698,"INCLINATION":51.6243,"RA_OF_ASC_NODE":97.2785,"ARG_OF_PERICENTER":51.9689,"MEAN_ANOMALY":308.1746,"EPHEMERIS_TYPE":0,"CLASSIFICATION_TYPE":"U","NORAD_CAT_ID":66910,"ELEMENT_SET_NO":999,"REV_AT_EPOCH":1420,"BSTAR":0.001218439,"MEAN_MOTION_DOT":0.00132206,"MEAN_MOTION_DDOT":0},{"OBJECT_NAME":"ISS OBJECT XX","OBJECT_ID":"1998-067XX","EPOCH":"2026-03-03T10:04:32.555136","MEAN_MOTION":15.72076747,"ECCENTRICITY":0.0006927,"INCLINATION":51.6218,"RA_OF_ASC_NODE":96.2644,"ARG_OF_PERICENTER":45.3691,"MEAN_ANOMALY":314.7871,"EPHEMERIS_TYPE":0,"CLASSIFICATION_TYPE":"U","NORAD_CAT_ID":66911,"ELEMENT_SET_NO":999,"REV_AT_EPOCH":1420,"BSTAR":0.0016401566,"MEAN_MOTION_DOT":0.00225432,"MEAN_MOTION_DDOT":0},{"OBJECT_NAME":"ISS OBJECT XY","OBJECT_ID":"1998-067XY","EPOCH":"2026-03-03T07:34:46.630272","MEAN_MOTION":15.6235664,"ECCENTRICITY":0.00028315,"INCLINATION":51.6268,"RA_OF_ASC_NODE":99.3453,"ARG_OF_PERICENTER":54.0828,"MEAN_ANOMALY":306.0429,"EPHEMERIS_TYPE":0,"CLASSIFICATION_TYPE":"U","NORAD_CAT_ID":66912,"ELEMENT_SET_NO":999,"REV_AT_EPOCH":1415,"BSTAR":0.00096247269,"MEAN_MOTION_DOT":0.00087307,"MEAN_MOTION_DDOT":0},{"OBJECT_NAME":"ISS OBJECT XZ","OBJECT_ID":"1998-067XZ","EPOCH":"2026-03-03T09:58:19.786656","MEAN_MOTION":15.51247194,"ECCENTRICITY":0.00095043,"INCLINATION":51.6308,"RA_OF_ASC_NODE":103.0125,"ARG_OF_PERICENTER":164.7935,"MEAN_ANOMALY":195.3341,"EPHEMERIS_TYPE":0,"CLASSIFICATION_TYPE":"U","NORAD_CAT_ID":67683,"ELEMENT_SET_NO":999,"REV_AT_EPOCH":381,"BSTAR":0.0006749461,"MEAN_MOTION_DOT":0.0004007,"MEAN_MOTION_DDOT":0},{"OBJECT_NAME":"GXIBA-1","OBJECT_ID":"1998-067YA","EPOCH":"2026-03-03T06:26:38.282496","MEAN_MOTION":15.53164734,"ECCENTRICITY":0.00109781,"INCLINATION":51.6298,"RA_OF_ASC_NODE":103.5313,"ARG_OF_PERICENTER":154.9471,"MEAN_ANOMALY":205.2054,"EPHEMERIS_TYPE":0,"CLASSIFICATION_TYPE":"U","NORAD_CAT_ID":67684,"ELEMENT_SET_NO":999,"REV_AT_EPOCH":379,"BSTAR":0.0011656143,"MEAN_MOTION_DOT":0.00074906,"MEAN_MOTION_DDOT":0},{"OBJECT_NAME":"CORAL","OBJECT_ID":"1998-067YB","EPOCH":"2026-03-03T12:59:20.460192","MEAN_MOTION":15.51560114,"ECCENTRICITY":0.0011409,"INCLINATION":51.631,"RA_OF_ASC_NODE":102.3518,"ARG_OF_PERICENTER":161.3532,"MEAN_ANOMALY":198.7877,"EPHEMERIS_TYPE":0,"CLASSIFICATION_TYPE":"U","NORAD_CAT_ID":67685,"ELEMENT_SET_NO":999,"REV_AT_EPOCH":383,"BSTAR":0.00083964,"MEAN_MOTION_DOT":0.00050636,"MEAN_MOTION_DDOT":0},{"OBJECT_NAME":"ISS OBJECT YC","OBJECT_ID":"1998-067YC","EPOCH":"2026-03-03T09:48:37.762560","MEAN_MOTION":15.51946136,"ECCENTRICITY":0.00077529,"INCLINATION":51.6308,"RA_OF_ASC_NODE":102.9692,"ARG_OF_PERICENTER":129.123,"MEAN_ANOMALY":231.045,"EPHEMERIS_TYPE":0,"CLASSIFICATION_TYPE":"U","NORAD_CAT_ID":67686,"ELEMENT_SET_NO":999,"REV_AT_EPOCH":381,"BSTAR":0.00084429394,"MEAN_MOTION_DOT":0.00051568,"MEAN_MOTION_DDOT":0},{"OBJECT_NAME":"LEOPARD","OBJECT_ID":"1998-067YD","EPOCH":"2026-03-03T09:55:53.940864","MEAN_MOTION":15.51386771,"ECCENTRICITY":0.00077356,"INCLINATION":51.6311,"RA_OF_ASC_NODE":103.0024,"ARG_OF_PERICENTER":132.4796,"MEAN_ANOMALY":227.6848,"EPHEMERIS_TYPE":0,"CLASSIFICATION_TYPE":"U","NORAD_CAT_ID":67687,"ELEMENT_SET_NO":999,"REV_AT_EPOCH":373,"BSTAR":0.00071814867,"MEAN_MOTION_DOT":0.0004287,"MEAN_MOTION_DDOT":0}]
